start=new Date('2023-07-01T00:00:00.000Z').valueOf();
sats=[{"ELEMENT_SET_NO":"999","APOAPSIS":"560.211","REF_FRAME":"TEME","MEAN_ELEMENT_THEORY":"SGP4","LAUNCH_DATE":"2023-02-02","OBJECT_NAME":"STARLINK-5141","GP_ID":"234635887","SEMIMAJOR_AXIS":"6937.198","DECAY_DATE":null,"RCS_SIZE":"LARGE","REV_AT_EPOCH":"2273","OBJECT_ID":"2023-015BD","BSTAR":"0.00012514000000","COUNTRY_CODE":"US","RA_OF_ASC_NODE":"280.1755","CLASSIFICATION_TYPE":"U","PERIOD":"95.838","MEAN_MOTION_DDOT":"0.0000000000000","MEAN_MOTION":"15.02542058","INCLINATION":"43.0035","OBJECT_TYPE":"PAYLOAD","TLE_LINE2":"2 55500  43.0035 280.1755 0001655 275.7058  84.3595 15.02542058 22731","EPOCH":"2023-06-30T15:38:19.488480","NORAD_CAT_ID":"55500","MEAN_MOTION_DOT":"0.00001487","ECCENTRICITY":"0.00016550","EPHEMERIS_TYPE":"0","CENTER_NAME":"EARTH","TIME_SYSTEM":"UTC","TLE_LINE1":"1 55500U 23015BD  23181.65161445  .00001487  00000-0  12514-3 0  9999","ARG_OF_PERICENTER":"275.7058","MEAN_ANOMALY":"84.3595","PERIAPSIS":"557.915","SITE":"AFETR","FILE":"3946180"},{"MEAN_ELEMENT_THEORY":"SGP4","ELEMENT_SET_NO":"999","APOAPSIS":"560.131","REF_FRAME":"TEME","GP_ID":"234635858","DECAY_DATE":null,"SEMIMAJOR_AXIS":"6937.193","LAUNCH_DATE":"2023-02-02","OBJECT_NAME":"STARLINK-5367","OBJECT_ID":"2023-015BE","BSTAR":"0.00019912000000","COUNTRY_CODE":"US","RCS_SIZE":"LARGE","REV_AT_EPOCH":"2273","CLASSIFICATION_TYPE":"U","RA_OF_ASC_NODE":"280.1180","MEAN_MOTION_DDOT":"0.0000000000000","INCLINATION":"43.0035","MEAN_MOTION":"15.02543617","OBJECT_TYPE":"PAYLOAD","PERIOD":"95.837","ECCENTRICITY":"0.00015460","EPHEMERIS_TYPE":"0","CENTER_NAME":"EARTH","TIME_SYSTEM":"UTC","TLE_LINE1":"1 55501U 23015BE  23181.64384672  .00002488  00000-0  19912-3 0  9999","ARG_OF_PERICENTER":"274.7063","TLE_LINE2":"2 55501  43.0035 280.1180 0001546 274.7063  85.3603 15.02543617 22731","EPOCH":"2023-06-30T15:27:08.356608","NORAD_CAT_ID":"55501","MEAN_MOTION_DOT":"0.00002488","SITE":"AFETR","FILE":"3946178","MEAN_ANOMALY":"85.3603","PERIAPSIS":"557.986"},{"DECAY_DATE":null,"GP_ID":"234630599","SEMIMAJOR_AXIS":"6937.202","LAUNCH_DATE":"2023-02-12","OBJECT_NAME":"STARLINK-5749","MEAN_ELEMENT_THEORY":"SGP4","ELEMENT_SET_NO":"999","APOAPSIS":"560.170","REF_FRAME":"TEME","CLASSIFICATION_TYPE":"U","RA_OF_ASC_NODE":"311.5085","OBJECT_ID":"2023-020A","BSTAR":"0.00009276500000","COUNTRY_CODE":"US","RCS_SIZE":"LARGE","REV_AT_EPOCH":"2090","MEAN_MOTION_DDOT":"0.0000000000000","INCLINATION":"43.0036","MEAN_MOTION":"15.02540671","OBJECT_TYPE":"PAYLOAD","PERIOD":"95.838","SITE":"AFETR","FILE":"3945972","MEAN_ANOMALY":"90.6078","PERIAPSIS":"557.964","EPHEMERIS_TYPE":"0","ECCENTRICITY":"0.00015900","CENTER_NAME":"EARTH","TIME_SYSTEM":"UTC","TLE_LINE1":"1 55569U 23020A   23180.74151695  .00001050  00000-0  92765-4 0  9998","ARG_OF_PERICENTER":"269.4582","TLE_LINE2":"2 55569  43.0036 311.5085 0001590 269.4582  90.6078 15.02540671 20904","EPOCH":"2023-06-29T17:47:47.064480","NORAD_CAT_ID":"55569","MEAN_MOTION_DOT":"0.00001050"},{"LAUNCH_DATE":"2023-02-12","OBJECT_NAME":"STARLINK-5737","GP_ID":"234630602","SEMIMAJOR_AXIS":"6937.201","DECAY_DATE":null,"ELEMENT_SET_NO":"999","REF_FRAME":"TEME","APOAPSIS":"560.093","MEAN_ELEMENT_THEORY":"SGP4","RA_OF_ASC_NODE":"311.5185","CLASSIFICATION_TYPE":"U","RCS_SIZE":"LARGE","REV_AT_EPOCH":"2090","BSTAR":"0.00007842100000","OBJECT_ID":"2023-020B","COUNTRY_CODE":"US","PERIOD":"95.838","INCLINATION":"43.0050","MEAN_MOTION":"15.02540938","MEAN_MOTION_DDOT":"0.0000000000000","OBJECT_TYPE":"PAYLOAD","PERIAPSIS":"558.040","MEAN_ANOMALY":"83.9852","SITE":"AFETR","FILE":"3945972","EPOCH":"2023-06-29T17:49:23.029824","TLE_LINE2":"2 55570  43.0050 311.5185 0001480 276.0822  83.9852 15.02540938 20903","MEAN_MOTION_DOT":"0.00000856","NORAD_CAT_ID":"55570","TIME_SYSTEM":"UTC","CENTER_NAME":"EARTH","EPHEMERIS_TYPE":"0","ECCENTRICITY":"0.00014800","ARG_OF_PERICENTER":"276.0822","TLE_LINE1":"1 55570U 23020B   23180.74262766  .00000856  00000-0  78421-4 0  9998"},{"RCS_SIZE":"LARGE","REV_AT_EPOCH":"2082","BSTAR":"0.00006284000000","OBJECT_ID":"2023-020C","COUNTRY_CODE":"US","RA_OF_ASC_NODE":"314.3831","CLASSIFICATION_TYPE":"U","ELEMENT_SET_NO":"999","REF_FRAME":"TEME","APOAPSIS":"559.990","MEAN_ELEMENT_THEORY":"SGP4","LAUNCH_DATE":"2023-02-12","OBJECT_NAME":"STARLINK-5739","GP_ID":"234624060","DECAY_DATE":null,"SEMIMAJOR_AXIS":"6937.226","EPOCH":"2023-06-29T04:58:46.200288","TLE_LINE2":"2 55571  43.0049 314.3831 0001296 275.4863  84.5832 15.02533005 20827","MEAN_MOTION_DOT":"0.00000645","NORAD_CAT_ID":"55571","TIME_SYSTEM":"UTC","CENTER_NAME":"EARTH","ECCENTRICITY":"0.00012960","EPHEMERIS_TYPE":"0","ARG_OF_PERICENTER":"275.4863","TLE_LINE1":"1 55571U 23020C   23180.20747917  .00000645  00000-0  62840-4 0  9990","PERIAPSIS":"558.192","MEAN_ANOMALY":"84.5832","SITE":"AFETR","FILE":"3945706","PERIOD":"95.838","INCLINATION":"43.0049","MEAN_MOTION":"15.02533005","MEAN_MOTION_DDOT":"0.0000000000000","OBJECT_TYPE":"PAYLOAD"},{"PERIOD":"95.894","MEAN_MOTION_DDOT":"0.0000000000000","MEAN_MOTION":"15.01660500","INCLINATION":"43.0043","OBJECT_TYPE":"PAYLOAD","TLE_LINE2":"2 55572  43.0043 310.4555 0001548 283.7583 348.3255 15.01660500 20924","EPOCH":"2023-06-29T22:00:00.999936","NORAD_CAT_ID":"55572","MEAN_MOTION_DOT":"0.00513736","EPHEMERIS_TYPE":"0","ECCENTRICITY":"0.00015480","CENTER_NAME":"EARTH","TIME_SYSTEM":"UTC","TLE_LINE1":"1 55572U 23020D   23180.91667824  .00513736  00000-0  36565-1 0  9999","ARG_OF_PERICENTER":"283.7583","MEAN_ANOMALY":"348.3255","PERIAPSIS":"560.703","SITE":"AFETR","FILE":"3945972","ELEMENT_SET_NO":"999","APOAPSIS":"562.852","REF_FRAME":"TEME","MEAN_ELEMENT_THEORY":"SGP4","LAUNCH_DATE":"2023-02-12","OBJECT_NAME":"STARLINK-5732","DECAY_DATE":null,"GP_ID":"234630106","SEMIMAJOR_AXIS":"6939.913","RCS_SIZE":"LARGE","REV_AT_EPOCH":"2092","OBJECT_ID":"2023-020D","BSTAR":"0.03656500000000","COUNTRY_CODE":"US","RA_OF_ASC_NODE":"310.4555","CLASSIFICATION_TYPE":"U"},{"INCLINATION":"43.0043","MEAN_MOTION":"15.02530282","MEAN_MOTION_DDOT":"0.0000000000000","OBJECT_TYPE":"PAYLOAD","PERIOD":"95.838","CENTER_NAME":"EARTH","TIME_SYSTEM":"UTC","ECCENTRICITY":"0.00016960","EPHEMERIS_TYPE":"0","ARG_OF_PERICENTER":"271.5117","TLE_LINE1":"1 55573U 23020E   23179.67232841  .00000498  00000-0  51923-4 0  9992","EPOCH":"2023-06-28T16:08:09.174624","TLE_LINE2":"2 55573  43.0043 317.2489 0001696 271.5117  88.5531 15.02530282 20742","MEAN_MOTION_DOT":"0.00000498","NORAD_CAT_ID":"55573","SITE":"AFETR","FILE":"3945205","PERIAPSIS":"557.923","MEAN_ANOMALY":"88.5531","MEAN_ELEMENT_THEORY":"SGP4","ELEMENT_SET_NO":"999","REF_FRAME":"TEME","APOAPSIS":"560.276","DECAY_DATE":null,"GP_ID":"234611416","SEMIMAJOR_AXIS":"6937.234","LAUNCH_DATE":"2023-02-12","OBJECT_NAME":"STARLINK-5738","BSTAR":"0.00005192300000","OBJECT_ID":"2023-020E","COUNTRY_CODE":"US","RCS_SIZE":"LARGE","REV_AT_EPOCH":"2074","CLASSIFICATION_TYPE":"U","RA_OF_ASC_NODE":"317.2489"},{"CLASSIFICATION_TYPE":"U","RA_OF_ASC_NODE":"306.3285","COUNTRY_CODE":"US","OBJECT_ID":"2023-020F","BSTAR":"0.00005633000000","RCS_SIZE":"LARGE","REV_AT_EPOCH":"2104","GP_ID":"234638093","SEMIMAJOR_AXIS":"6937.209","DECAY_DATE":null,"OBJECT_NAME":"STARLINK-5747","LAUNCH_DATE":"2023-02-12","MEAN_ELEMENT_THEORY":"SGP4","APOAPSIS":"560.213","REF_FRAME":"TEME","ELEMENT_SET_NO":"999","FILE":"3946255","SITE":"AFETR","MEAN_ANOMALY":"83.7313","PERIAPSIS":"557.934","TLE_LINE1":"1 55574U 23020F   23181.65556207  .00000557  00000-0  56330-4 0  9992","ARG_OF_PERICENTER":"276.3343","EPHEMERIS_TYPE":"0","ECCENTRICITY":"0.00016430","CENTER_NAME":"EARTH","TIME_SYSTEM":"UTC","NORAD_CAT_ID":"55574","MEAN_MOTION_DOT":"0.00000557","TLE_LINE2":"2 55574  43.0044 306.3285 0001643 276.3343  83.7313 15.02538580 21041","EPOCH":"2023-06-30T15:44:00.562848","OBJECT_TYPE":"PAYLOAD","MEAN_MOTION_DDOT":"0.0000000000000","MEAN_MOTION":"15.02538580","INCLINATION":"43.0044","PERIOD":"95.838"},{"MEAN_ELEMENT_THEORY":"SGP4","ELEMENT_SET_NO":"999","APOAPSIS":"560.209","REF_FRAME":"TEME","GP_ID":"234630605","DECAY_DATE":null,"SEMIMAJOR_AXIS":"6937.201","LAUNCH_DATE":"2023-02-12","OBJECT_NAME":"STARLINK-5745","OBJECT_ID":"2023-020G","BSTAR":"0.00012763000000","COUNTRY_CODE":"US","RCS_SIZE":"LARGE","REV_AT_EPOCH":"2090","CLASSIFICATION_TYPE":"U","RA_OF_ASC_NODE":"311.4260","MEAN_MOTION_DDOT":"0.0000000000000","INCLINATION":"43.0043","MEAN_MOTION":"15.02540939","OBJECT_TYPE":"PAYLOAD","PERIOD":"95.838","ECCENTRICITY":"0.00016470","EPHEMERIS_TYPE":"0","TIME_SYSTEM":"UTC","CENTER_NAME":"EARTH","TLE_LINE1":"1 55575U 23020G   23180.73041962  .00001521  00000-0  12763-3 0  9991","ARG_OF_PERICENTER":"274.0354","TLE_LINE2":"2 55575  43.0043 311.4260 0001647 274.0354  86.0300 15.02540939 20909","EPOCH":"2023-06-29T17:31:48.255168","NORAD_CAT_ID":"55575","MEAN_MOTION_DOT":"0.00001521","SITE":"AFETR","FILE":"3945972","MEAN_ANOMALY":"86.0300","PERIAPSIS":"557.924"},{"ELEMENT_SET_NO":"999","APOAPSIS":"560.196","REF_FRAME":"TEME","MEAN_ELEMENT_THEORY":"SGP4","LAUNCH_DATE":"2023-02-12","OBJECT_NAME":"STARLINK-5751","GP_ID":"234611926","SEMIMAJOR_AXIS":"6937.232","DECAY_DATE":null,"RCS_SIZE":"LARGE","REV_AT_EPOCH":"2100","OBJECT_ID":"2023-020H","BSTAR":"0.00005937700000","COUNTRY_CODE":"US","RA_OF_ASC_NODE":"292.4664","CLASSIFICATION_TYPE":"U","PERIOD":"95.838","MEAN_MOTION_DDOT":"0.0000000000000","INCLINATION":"43.0029","MEAN_MOTION":"15.02531059","OBJECT_TYPE":"PAYLOAD","TLE_LINE2":"2 55576  43.0029 292.4664 0001585 267.8505  92.2156 15.02531059 21002","EPOCH":"2023-06-28T08:59:37.863456","NORAD_CAT_ID":"55576","MEAN_MOTION_DOT":"0.00000598","ECCENTRICITY":"0.00015850","EPHEMERIS_TYPE":"0","TIME_SYSTEM":"UTC","CENTER_NAME":"EARTH","TLE_LINE1":"1 55576U 23020H   23179.37474379  .00000598  00000-0  59377-4 0  9998","ARG_OF_PERICENTER":"267.8505","MEAN_ANOMALY":"92.2156","PERIAPSIS":"557.997","SITE":"AFETR","FILE":"3945205"}];
